GLOBALSTAR M096 [+]     
1 39075U 13005D   24086.87928141 -.00000055  00000+0  27304-3 0  9992
2 39075  52.0064 152.2030 0000388  71.5089 288.5820 12.62263960514803
GLOBALSTAR M078 [+]     
1 39076U 13005E   24086.69507496 -.00000097  00000+0  38634-4 0  9994
2 39076  51.9858 237.8849 0000375 244.1927 115.8900 12.62261657513403
GLOBALSTAR M095 [+]     
1 39077U 13005F   24086.72086402 -.00000100  00000+0  18804-4 0  9990
2 39077  51.9784 235.2209 0000258  36.1410 323.9474 12.62276290513261
